[{"OBJECT_NAME":"GSAT-6","OBJECT_ID":"2015-041A","EPOCH":"2026-03-15T03:43:40.014336","MEAN_MOTION":1.00273237,"ECCENTRICITY":0.00029033,"INCLINATION":1.6761,"RA_OF_ASC_NODE":83.8039,"ARG_OF_PERICENTER":276.8187,"MEAN_ANOMALY":310.5837,"EPHEMERIS_TYPE":0,"CLASSIFICATION_TYPE":"U","NORAD_CAT_ID":40880,"ELEMENT_SET_NO":999,"REV_AT_EPOCH":3865,"BSTAR":0,"MEAN_MOTION_DOT":-1.61e-6,"MEAN_MOTION_DDOT":0},{"OBJECT_NAME":"INMARSAT 5-F3","OBJECT_ID":"2015-042A","EPOCH":"2026-03-13T19:40:15.308832","MEAN_MOTION":1.00268591,"ECCENTRICITY":0.00012555,"INCLINATION":0.0192,"RA_OF_ASC_NODE":146.1501,"ARG_OF_PERICENTER":271.0162,"MEAN_ANOMALY":228.9045,"EPHEMERIS_TYPE":0,"CLASSIFICATION_TYPE":"U","NORAD_CAT_ID":40882,"ELEMENT_SET_NO":999,"REV_AT_EPOCH":3861,"BSTAR":0,"MEAN_MOTION_DOT":4.9e-7,"MEAN_MOTION_DDOT":0},{"OBJECT_NAME":"TJS-1","OBJECT_ID":"2015-046A","EPOCH":"2026-03-13T09:17:10.273344","MEAN_MOTION":1.00270429,"ECCENTRICITY":0.00047614,"INCLINATION":0.0752,"RA_OF_ASC_NODE":84.2509,"ARG_OF_PERICENTER":305.1138,"MEAN_ANOMALY":75.9419,"EPHEMERIS_TYPE":0,"CLASSIFICATION_TYPE":"U","NORAD_CAT_ID":40892,"ELEMENT_SET_NO":999,"REV_AT_EPOCH":3861,"BSTAR":0,"MEAN_MOTION_DOT":-1.57e-6,"MEAN_MOTION_DDOT":0},{"OBJECT_NAME":"EXPRESS-AM8","OBJECT_ID":"2015-048A","EPOCH":"2026-03-15T06:41:30.459264","MEAN_MOTION":1.00272403,"ECCENTRICITY":9.25e-6,"INCLINATION":0.0127,"RA_OF_ASC_NODE":226.9322,"ARG_OF_PERICENTER":236.6654,"MEAN_ANOMALY":155.6564,"EPHEMERIS_TYPE":0,"CLASSIFICATION_TYPE":"U","NORAD_CAT_ID":40895,"ELEMENT_SET_NO":999,"REV_AT_EPOCH":3840,"BSTAR":0,"MEAN_MOTION_DOT":-1.12e-6,"MEAN_MOTION_DDOT":0},{"OBJECT_NAME":"COSMOS 1700 DEB","OBJECT_ID":"1985-102G","EPOCH":"2026-03-14T17:22:13.136160","MEAN_MOTION":1.00217961,"ECCENTRICITY":0.00220535,"INCLINATION":9.849,"RA_OF_ASC_NODE":319.3715,"ARG_OF_PERICENTER":119.3,"MEAN_ANOMALY":57.9353,"EPHEMERIS_TYPE":0,"CLASSIFICATION_TYPE":"U","NORAD_CAT_ID":40924,"ELEMENT_SET_NO":999,"REV_AT_EPOCH":6648,"BSTAR":0,"MEAN_MOTION_DOT":1.7e-7,"MEAN_MOTION_DDOT":0},{"OBJECT_NAME":"SKY MUSTER 1 (NBN1A)","OBJECT_ID":"2015-054A","EPOCH":"2026-03-12T12:40:43.111200","MEAN_MOTION":1.00271242,"ECCENTRICITY":0.0001703,"INCLINATION":0.018,"RA_OF_ASC_NODE":195.7183,"ARG_OF_PERICENTER":164.3283,"MEAN_ANOMALY":140.5396,"EPHEMERIS_TYPE":0,"CLASSIFICATION_TYPE":"U","NORAD_CAT_ID":40940,"ELEMENT_SET_NO":999,"REV_AT_EPOCH":3829,"BSTAR":0,"MEAN_MOTION_DOT":-2.78e-6,"MEAN_MOTION_DDOT":0},{"OBJECT_NAME":"ARSAT 2","OBJECT_ID":"2015-054B","EPOCH":"2026-03-13T11:35:13.162272","MEAN_MOTION":1.00267894,"ECCENTRICITY":0.00018484,"INCLINATION":0.0132,"RA_OF_ASC_NODE":154.1496,"ARG_OF_PERICENTER":198.7637,"MEAN_ANOMALY":271.0022,"EPHEMERIS_TYPE":0,"CLASSIFICATION_TYPE":"U","NORAD_CAT_ID":40941,"ELEMENT_SET_NO":999,"REV_AT_EPOCH":3834,"BSTAR":0,"MEAN_MOTION_DOT":0,"MEAN_MOTION_DDOT":0},{"OBJECT_NAME":"MORELOS 3","OBJECT_ID":"2015-056A","EPOCH":"2026-03-15T06:13:18.163200","MEAN_MOTION":1.00271971,"ECCENTRICITY":0.00032422,"INCLINATION":3.1167,"RA_OF_ASC_NODE":12.4217,"ARG_OF_PERICENTER":359.4354,"MEAN_ANOMALY":141.2034,"EPHEMERIS_TYPE":0,"CLASSIFICATION_TYPE":"U","NORAD_CAT_ID":40946,"ELEMENT_SET_NO":999,"REV_AT_EPOCH":3834,"BSTAR":0,"MEAN_MOTION_DOT":-4.1e-7,"MEAN_MOTION_DDOT":0},{"OBJECT_NAME":"APSTAR-9","OBJECT_ID":"2015-059A","EPOCH":"2026-03-13T07:47:51.644256","MEAN_MOTION":1.00268527,"ECCENTRICITY":0.0001259,"INCLINATION":0.0403,"RA_OF_ASC_NODE":7.9304,"ARG_OF_PERICENTER":247.6726,"MEAN_ANOMALY":174.2589,"EPHEMERIS_TYPE":0,"CLASSIFICATION_TYPE":"U","NORAD_CAT_ID":40982,"ELEMENT_SET_NO":999,"REV_AT_EPOCH":3815,"BSTAR":0,"MEAN_MOTION_DOT":-2.67e-6,"MEAN_MOTION_DDOT":0},{"OBJECT_NAME":"TURKSAT 4B","OBJECT_ID":"2015-060A","EPOCH":"2026-03-15T05:17:08.549376","MEAN_MOTION":1.00268658,"ECCENTRICITY":0.00021201,"INCLINATION":0.0246,"RA_OF_ASC_NODE":163.4277,"ARG_OF_PERICENTER":206.2077,"MEAN_ANOMALY":292.4808,"EPHEMERIS_TYPE":0,"CLASSIFICATION_TYPE":"U","NORAD_CAT_ID":40984,"ELEMENT_SET_NO":999,"REV_AT_EPOCH":3815,"BSTAR":0,"MEAN_MOTION_DOT":0,"MEAN_MOTION_DDOT":0},{"OBJECT_NAME":"ZHONGXING-2C","OBJECT_ID":"2015-063A","EPOCH":"2026-03-15T07:15:04.739616","MEAN_MOTION":1.00269031,"ECCENTRICITY":0.00064147,"INCLINATION":0.032,"RA_OF_ASC_NODE":132.0392,"ARG_OF_PERICENTER":88.7079,"MEAN_ANOMALY":164.3519,"EPHEMERIS_TYPE":0,"CLASSIFICATION_TYPE":"U","NORAD_CAT_ID":41021,"ELEMENT_SET_NO":999,"REV_AT_EPOCH":3803,"BSTAR":0,"MEAN_MOTION_DOT":-3.24e-6,"MEAN_MOTION_DDOT":0},{"OBJECT_NAME":"GSAT-15","OBJECT_ID":"2015-065A","EPOCH":"2026-03-15T02:04:04.564416","MEAN_MOTION":1.00271405,"ECCENTRICITY":0.00015688,"INCLINATION":0.0651,"RA_OF_ASC_NODE":269.1503,"ARG_OF_PERICENTER":126.8549,"MEAN_ANOMALY":261.2054,"EPHEMERIS_TYPE":0,"CLASSIFICATION_TYPE":"U","NORAD_CAT_ID":41028,"ELEMENT_SET_NO":999,"REV_AT_EPOCH":3785,"BSTAR":0,"MEAN_MOTION_DOT":-2.59e-6,"MEAN_MOTION_DDOT":0},{"OBJECT_NAME":"BADR-7 (ARABSAT-6B)","OBJECT_ID":"2015-065B","EPOCH":"2026-03-15T06:52:59.357568","MEAN_MOTION":1.00270795,"ECCENTRICITY":0.00030115,"INCLINATION":0.0319,"RA_OF_ASC_NODE":217.906,"ARG_OF_PERICENTER":37.5837,"MEAN_ANOMALY":46.6301,"EPHEMERIS_TYPE":0,"CLASSIFICATION_TYPE":"U","NORAD_CAT_ID":41029,"ELEMENT_SET_NO":999,"REV_AT_EPOCH":3782,"BSTAR":0,"MEAN_MOTION_DOT":1.44e-6,"MEAN_MOTION_DDOT":0},{"OBJECT_NAME":"LAOSAT 1","OBJECT_ID":"2015-067A","EPOCH":"2026-03-14T19:57:10.272096","MEAN_MOTION":1.00268152,"ECCENTRICITY":0.00014767,"INCLINATION":0.0266,"RA_OF_ASC_NODE":58.3406,"ARG_OF_PERICENTER":266.7453,"MEAN_ANOMALY":275.1066,"EPHEMERIS_TYPE":0,"CLASSIFICATION_TYPE":"U","NORAD_CAT_ID":41034,"ELEMENT_SET_NO":999,"REV_AT_EPOCH":3791,"BSTAR":0,"MEAN_MOTION_DOT":-3.44e-6,"MEAN_MOTION_DDOT":0},{"OBJECT_NAME":"TELSTAR 12V","OBJECT_ID":"2015-068A","EPOCH":"2026-03-15T04:58:32.831616","MEAN_MOTION":1.00271683,"ECCENTRICITY":0.00025579,"INCLINATION":0.0154,"RA_OF_ASC_NODE":133.0816,"ARG_OF_PERICENTER":227.6272,"MEAN_ANOMALY":231.7404,"EPHEMERIS_TYPE":0,"CLASSIFICATION_TYPE":"U","NORAD_CAT_ID":41036,"ELEMENT_SET_NO":999,"REV_AT_EPOCH":3768,"BSTAR":0,"MEAN_MOTION_DOT":-1.2e-6,"MEAN_MOTION_DDOT":0},{"OBJECT_NAME":"ELEKTRO-L 2","OBJECT_ID":"2015-074A","EPOCH":"2026-03-15T06:41:22.970976","MEAN_MOTION":1.00273414,"ECCENTRICITY":0.00028074,"INCLINATION":6.4571,"RA_OF_ASC_NODE":71.6721,"ARG_OF_PERICENTER":249.8242,"MEAN_ANOMALY":297.22,"EPHEMERIS_TYPE":0,"CLASSIFICATION_TYPE":"U","NORAD_CAT_ID":41105,"ELEMENT_SET_NO":999,"REV_AT_EPOCH":3756,"BSTAR":0,"MEAN_MOTION_DOT":-1.14e-6,"MEAN_MOTION_DDOT":0},{"OBJECT_NAME":"COSMOS 2513","OBJECT_ID":"2015-075A","EPOCH":"2026-03-14T21:24:51.719328","MEAN_MOTION":1.00272874,"ECCENTRICITY":0.00022652,"INCLINATION":0.0439,"RA_OF_ASC_NODE":108.2335,"ARG_OF_PERICENTER":260.3394,"MEAN_ANOMALY":205.379,"EPHEMERIS_TYPE":0,"CLASSIFICATION_TYPE":"U","NORAD_CAT_ID":41121,"ELEMENT_SET_NO":999,"REV_AT_EPOCH":3760,"BSTAR":0,"MEAN_MOTION_DOT":-1.39e-6,"MEAN_MOTION_DDOT":0}]
